OBJECT_NAME,OBJECT_ID,EPOCH,MEAN_MOTION,ECCENTRICITY,INCLINATION,RA_OF_ASC_NODE,ARG_OF_PERICENTER,MEAN_ANOMALY,EPHEMERIS_TYPE,CLASSIFICATION_TYPE,NORAD_CAT_ID,ELEMENT_SET_NO,REV_AT_EPOCH,BSTAR,MEAN_MOTION_DOT,MEAN_MOTION_DDOT
SUOMI NPP,2011-061A,2026-06-25T03:56:52.164096,14.19518945,.0001079,98.7954,116.9860,344.8503,15.2641,0,U,37849,999,75957,.49106E-4,.59E-6,0
YAOGAN-12,2011-066B,2026-06-25T04:43:21.608832,15.26685707,.0009628,97.1144,214.3888,185.5434,174.5700,0,U,37875,999,81326,.2465E-3,.641E-4,0
BEIDOU-2 M4,2012-018B,2026-06-23T13:32:51.775296,1.86229575,.0011628,55.6516,303.8740,274.1207,85.7373,0,U,38251,999,9606,0,-.108E-5,0
ARIRANG-3 (KOMPSAT-3),2012-025B,2026-06-25T04:13:20.731296,14.62212453,.0006821,98.1174,133.4981,89.4983,270.7000,0,U,38338,999,75251,.86282E-4,.388E-5,0
METOP-B,2012-049A,2026-06-25T05:08:27.221280,14.21441342,.0001731,98.6500,227.5532,356.6267,3.4898,0,U,38771,999,71440,.61053E-4,.9E-6,0
SJ-9A,2012-056A,2026-06-25T04:19:34.061376,14.85492087,.0024308,97.6712,147.8428,228.7962,131.1158,0,U,38860,999,70077,.11301E-3,.927E-5,0
COSMOS 2484 (RODNIK-S 6),2013-001C,2026-06-25T04:41:24.924768,12.42939209,.0026551,82.5011,216.9140,19.4281,340.7804,0,U,39059,999,60955,-.12924E-3,-.8E-7,0
SARAL,2013-009A,2026-06-25T03:23:25.522368,14.32857754,.0000653,98.5558,2.6077,243.7776,116.3341,0,U,39086,999,69674,.50979E-4,.95E-6,0
STRAND-1,2013-009E,2026-06-24T22:09:29.791872,14.37167384,.0008147,98.3924,355.9672,200.1736,159.9130,0,U,39090,999,69817,.10254E-3,.262E-5,0
BRITE-AUSTRIA,2013-009F,2026-06-25T01:53:27.043008,14.36544953,.0009524,98.3998,355.3192,210.7244,149.3386,0,U,39091,999,69818,.71218E-4,.166E-5,0
GAOFEN-1,2013-018A,2026-06-25T04:40:52.576608,14.76543786,.0015803,97.9093,248.1005,238.3581,121.6088,0,U,39150,999,70942,.52212E-4,.314E-5,0
NEE-01 PEGASO,2013-018B,2026-06-23T08:40:52.104288,14.93689152,.00135282,98.1232,318.7162,139.4082,220.8148,0,U,39151,999,71162,.22542166E-3,.2326E-4,0
PROBA-V,2013-021A,2026-06-25T04:50:44.026080,14.23598638,.0005379,98.3588,154.4130,105.0732,255.1043,0,U,39159,999,68225,.51922E-4,.77E-6,0
ARIRANG-5 (KOMPSAT-5),2013-042A,2026-06-25T03:31:57.540000,15.04504780,.0005147,97.6194,2.7354,103.4098,256.7702,0,U,39227,999,70505,.58565E-4,.759E-5,0
GONETS-M 5,2013-048A,2026-06-25T03:57:01.262880,12.42892182,.0016457,82.4836,338.4082,192.4831,167.5844,0,U,39249,999,57987,.3967E-3,.65E-6,0
GONETS-M 7,2013-048C,2026-06-25T04:59:23.085312,12.42915006,.0017211,82.4903,341.3077,193.8088,166.2523,0,U,39251,999,57983,.50483E-3,.8E-6,0
FENGYUN 3C,2013-052A,2026-06-25T04:06:36.934848,14.15756721,.0014784,98.4982,149.6796,5.3555,354.7775,0,U,39260,999,65969,.6435E-4,.85E-6,0
CASSIOPE,2013-055A,2026-06-25T03:56:05.363808,15.25909260,.0289798,80.9142,57.0304,35.6523,326.3684,0,U,39265,999,66888,.5824E-3,.5366E-3,-.25555E-6
APRIZESAT 7,2013-066A,2026-06-24T03:08:22.310592,14.91575729,.00355824,97.7710,128.2509,185.7916,174.2897,0,U,39416,999,68226,.81258736E-4,.767E-5,0
ZACUBE-1 (TSHEPISOSAT),2013-066B,2026-06-25T03:20:30.042240,15.01227073,.0041882,97.8051,138.5170,220.5392,139.2711,0,U,39417,999,68192,.23876E-3,.3058E-4,0
APRIZESAT 8,2013-066K,2026-06-25T01:52:40.756800,14.87665274,.0044354,97.8222,123.4362,259.6873,99.9341,0,U,39425,999,68084,.93169E-4,.805E-5,0
