SUOMI NPP               
1 37849U 11061A   26176.16449264  .00000059  00000+0  49106-4 0  9995
2 37849  98.7954 116.9860 0001079 344.8503  15.2641 14.19518945759579
YAOGAN-12               
1 37875U 11066B   26176.19677788  .00006410  00000+0  24650-3 0  9999
2 37875  97.1144 214.3888 0009628 185.5434 174.5700 15.26685707813268
BEIDOU-2 M4             
1 38251U 12018B   26174.56448814 -.00000108  00000+0  00000+0 0  9999
2 38251  55.6516 303.8740 0011628 274.1207  85.7373  1.86229575 96064
ARIRANG-3 (KOMPSAT-3)   
1 38338U 12025B   26176.17593439  .00000388  00000+0  86282-4 0  9996
2 38338  98.1174 133.4981 0006821  89.4983 270.7000 14.62212453752510
METOP-B                 
1 38771U 12049A   26176.21420395  .00000090  00000+0  61053-4 0  9997
2 38771  98.6500 227.5532 0001731 356.6267   3.4898 14.21441342714403
SJ-9A                   
1 38860U 12056A   26176.18025534  .00000927  00000+0  11301-3 0  9995
2 38860  97.6712 147.8428 0024308 228.7962 131.1158 14.85492087700775
COSMOS 2484 (RODNIK-S 6)
1 39059U 13001C   26176.19542737 -.00000008  00000+0 -12924-3 0  9991
2 39059  82.5011 216.9140 0026551  19.4281 340.7804 12.42939209609554
SARAL                   
1 39086U 13009A   26176.14126762  .00000095  00000+0  50979-4 0  9997
2 39086  98.5558   2.6077 0000653 243.7776 116.3341 14.32857754696747
STRAND-1                
1 39090U 13009E   26175.92326148  .00000262  00000+0  10254-3 0  9994
2 39090  98.3924 355.9672 0008147 200.1736 159.9130 14.37167384698177
BRITE-AUSTRIA           
1 39091U 13009F   26176.07878522  .00000166  00000+0  71218-4 0  9991
2 39091  98.3998 355.3192 0009524 210.7244 149.3386 14.36544953698188
GAOFEN-1                
1 39150U 13018A   26176.19505297  .00000314  00000+0  52212-4 0  9994
2 39150  97.9093 248.1005 0015803 238.3581 121.6088 14.76543786709423
NEE-01 PEGASO           
1 39151U 13018B   26174.36171417  .00002326  00000+0  22542-3 0  9992
2 39151  98.1232 318.7162 0013528 139.4082 220.8148 14.93689152711620
PROBA-V                 
1 39159U 13021A   26176.20189845  .00000077  00000+0  51922-4 0  9999
2 39159  98.3588 154.4130 0005379 105.0732 255.1043 14.23598638682252
ARIRANG-5 (KOMPSAT-5)   
1 39227U 13042A   26176.14719375  .00000759  00000+0  58565-4 0  9995
2 39227  97.6194   2.7354 0005147 103.4098 256.7702 15.04504780705054
GONETS-M 5              
1 39249U 13048A   26176.16459795  .00000065  00000+0  39670-3 0  9999
2 39249  82.4836 338.4082 0016457 192.4831 167.5844 12.42892182579879
GONETS-M 7              
1 39251U 13048C   26176.20790608  .00000080  00000+0  50483-3 0  9990
2 39251  82.4903 341.3077 0017211 193.8088 166.2523 12.42915006579839
FENGYUN 3C              
1 39260U 13052A   26176.17126082  .00000085  00000+0  64350-4 0  9994
2 39260  98.4982 149.6796 0014784   5.3555 354.7775 14.15756721659693
CASSIOPE                
1 39265U 13055A   26176.16395097  .00053660 -25555-6  58240-3 0  9992
2 39265  80.9142  57.0304 0289798  35.6523 326.3684 15.25909260668884
APRIZESAT 7             
1 39416U 13066A   26175.13081378  .00000767  00000+0  81259-4 0  9999
2 39416  97.7710 128.2509 0035582 185.7916 174.2897 14.91575729682265
ZACUBE-1 (TSHEPISOSAT)  
1 39417U 13066B   26176.13923660  .00003058  00000+0  23876-3 0  9996
2 39417  97.8051 138.5170 0041882 220.5392 139.2711 15.01227073681925
APRIZESAT 8             
1 39425U 13066K   26176.07824950  .00000805  00000+0  93169-4 0  9990
2 39425  97.8222 123.4362 0044354 259.6873  99.9341 14.87665274680847
